{"type": "FeatureCollection", "features": [ {"type": "Feature", "properties": {"norad_id": 54031, "name": "COSMOS 2559 (707K)", "group": "gnss", "lat": -47.2323259443068, "lon": -70.43574037294403, "alt_km": 19147.337451337906, "timestamp": "2025-12-21T22:41:41.704606+00:00", "meta": {"OBJECT_NAME": "COSMOS 2559 (707K)", "OBJECT_ID": "2022-130A", "EPOCH": "2025-12-21T01:52:43.812768", "MEAN_MOTION": 2.13101354, "ECCENTRICITY": 0.00115601, "INCLINATION": 64.3775, "RA_OF_ASC_NODE": 320.8478, "ARG_OF_PERICENTER": 191.8523, "MEAN_ANOMALY": 168.1144, "EPHEMERIS_TYPE": 0, "CLASSIFICATION_TYPE": "U", "NORAD_CAT_ID": 54031, "ELEMENT_SET_NO": 999, "REV_AT_EPOCH": 2489, "BSTAR": 0, "MEAN_MOTION_DOT": -5e-07, "MEAN_MOTION_DDOT": 0}, "tle": {"line1": "1 54031U 22130A   25355.07828487 -.00000050  00000+0  00000+0 0  9999", "line2": "2 54031  64.3775 320.8478 0011560 191.8523 168.1144  2.13101354 24899"}}, "geometry": {"type": "Point", "coordinates": [-70.43574037294403, -47.2323259443068]}}, {"type": "Feature", "properties": {"norad_id": 54377, "name": "COSMOS 2564 (761)", "group": "gnss", "lat": 54.93438653399152, "lon": -119.09633309545842, "alt_km": 19140.18419983913, "timestamp": "2025-12-21T22:41:41.704617+00:00", "meta": {"OBJECT_NAME": "COSMOS 2564 (761)", "OBJECT_ID": "2022-161A", "EPOCH": "2025-12-20T22:08:20.201856", "MEAN_MOTION": 2.13102061, "ECCENTRICITY": 0.00085464, "INCLINATION": 64.7387, "RA_OF_ASC_NODE": 198.627, "ARG_OF_PERICENTER": 203.7858, "MEAN_ANOMALY": 156.2488, "EPHEMERIS_TYPE": 0, "CLASSIFICATION_TYPE": "U", "NORAD_CAT_ID": 54377, "ELEMENT_SET_NO": 999, "REV_AT_EPOCH": 2383, "BSTAR": 0, "MEAN_MOTION_DOT": 9.9e-07, "MEAN_MOTION_DDOT": 0}, "tle": {"line1": "1 54377U 22161A   25354.92245604  .00000099  00000+0  00000+0 0  9995", "line2": "2 54377  64.7387 198.6270 0008546 203.7858 156.2488  2.13102061 23838"}}, "geometry": {"type": "Point", "coordinates": [-119.09633309545842, 54.93438653399152]}}, {"type": "Feature", "properties": {"norad_id": 55268, "name": "GPS BIII-6  (PRN 28)", "group": "gnss", "lat": -8.139121646813424, "lon": 149.74394604274025, "alt_km": 20174.4733730951, "timestamp": "2025-12-21T22:41:41.704628+00:00", "meta": {"OBJECT_NAME": "GPS BIII-6  (PRN 28)", "OBJECT_ID": "2023-009A", "EPOCH": "2025-12-21T11:01:56.819424", "MEAN_MOTION": 2.00555004, "ECCENTRICITY": 0.00037189, "INCLINATION": 55.1065, "RA_OF_ASC_NODE": 155.503, "ARG_OF_PERICENTER": 355.6529, "MEAN_ANOMALY": 3.5346, "EPHEMERIS_TYPE": 0, "CLASSIFICATION_TYPE": "U", "NORAD_CAT_ID": 55268, "ELEMENT_SET_NO": 999, "REV_AT_EPOCH": 2167, "BSTAR": 0, "MEAN_MOTION_DOT": 6.8e-07, "MEAN_MOTION_DDOT": 0}, "tle": {"line1": "1 55268U 23009A   25355.45968541  .00000068  00000+0  00000+0 0  9994", "line2": "2 55268  55.1065 155.5030 0003718 355.6529   3.5346  2.00555004 21671"}}, "geometry": {"type": "Point", "coordinates": [149.74394604274025, -8.139121646813424]}}, {"type": "Feature", "properties": {"norad_id": 56564, "name": "BEIDOU-3 G4 (C62)", "group": "gnss", "lat": -0.7742545287003691, "lon": -128.74027652939873, "alt_km": 35780.99877801069, "timestamp": "2025-12-21T22:41:41.704640+00:00", "meta": {"OBJECT_NAME": "BEIDOU-3 G4 (C62)", "OBJECT_ID": "2023-066A", "EPOCH": "2025-12-21T15:17:44.488608", "MEAN_MOTION": 1.0027139, "ECCENTRICITY": 0.00026846, "INCLINATION": 0.7966, "RA_OF_ASC_NODE": 302.7288, "ARG_OF_PERICENTER": 226.7052, "MEAN_ANOMALY": 310.5154, "EPHEMERIS_TYPE": 0, "CLASSIFICATION_TYPE": "U", "NORAD_CAT_ID": 56564, "ELEMENT_SET_NO": 999, "REV_AT_EPOCH": 961, "BSTAR": 0, "MEAN_MOTION_DOT": -8.8e-07, "MEAN_MOTION_DDOT": 0}, "tle": {"line1": "1 56564U 23066A   25355.63732047 -.00000088  00000+0  00000+0 0  9990", "line2": "2 56564   0.7966 302.7288 0002684 226.7052 310.5154  1.00271390  9618"}}, "geometry": {"type": "Point", "coordinates": [-128.74027652939873, -0.7742545287003691]}}, {"type": "Feature", "properties": {"norad_id": 56759, "name": "NVS-01 (IRNSS-1J)", "group": "gnss", "lat": -2.0184129787729455, "lon": -159.33430859953853, "alt_km": 35771.562727557255, "timestamp": "2025-12-21T22:41:41.704652+00:00", "meta": {"OBJECT_NAME": "NVS-01 (IRNSS-1J)", "OBJECT_ID": "2023-076A", "EPOCH": "2025-12-21T13:48:51.708672", "MEAN_MOTION": 1.00273137, "ECCENTRICITY": 0.00087628, "INCLINATION": 2.5977, "RA_OF_ASC_NODE": 251.2873, "ARG_OF_PERICENTER": 16.4363, "MEAN_ANOMALY": 159.4427, "EPHEMERIS_TYPE": 0, "CLASSIFICATION_TYPE": "U", "NORAD_CAT_ID": 56759, "ELEMENT_SET_NO": 999, "REV_AT_EPOCH": 933, "BSTAR": 0, "MEAN_MOTION_DOT": -3.11e-06, "MEAN_MOTION_DDOT": 0}, "tle": {"line1": "1 56759U 23076A   25355.57559848 -.00000311  00000+0  00000+0 0  9995", "line2": "2 56759   2.5977 251.2873 0008762  16.4363 159.4427  1.00273137  9339"}}, "geometry": {"type": "Point", "coordinates": [-159.33430859953853, -2.0184129787729455]}}, {"type": "Feature", "properties": {"norad_id": 57517, "name": "COSMOS 2569 (703K)", "group": "gnss", "lat": 47.81542859613567, "lon": 109.23593995340639, "alt_km": 19141.094740906974, "timestamp": "2025-12-21T22:41:41.704663+00:00", "meta": {"OBJECT_NAME": "COSMOS 2569 (703K)", "OBJECT_ID": "2023-114A", "EPOCH": "2025-12-20T11:11:48.591168", "MEAN_MOTION": 2.13103983, "ECCENTRICITY": 0.00107986, "INCLINATION": 65.1981, "RA_OF_ASC_NODE": 78.6524, "ARG_OF_PERICENTER": 287.0398, "MEAN_ANOMALY": 72.8764, "EPHEMERIS_TYPE": 0, "CLASSIFICATION_TYPE": "U", "NORAD_CAT_ID": 57517, "ELEMENT_SET_NO": 999, "REV_AT_EPOCH": 1845, "BSTAR": 0, "MEAN_MOTION_DOT": -1.8e-07, "MEAN_MOTION_DDOT": 0}, "tle": {"line1": "1 57517U 23114A   25354.46653462 -.00000018  00000+0  00000+0 0  9999", "line2": "2 57517  65.1981  78.6524 0010798 287.0398  72.8764  2.13103983 18453"}}, "geometry": {"type": "Point", "coordinates": [109.23593995340639, 47.81542859613567]}}, {"type": "Feature", "properties": {"norad_id": 58654, "name": "BEIDOU-3 M28 (C50)", "group": "gnss", "lat": -52.59434138177068, "lon": -48.19160354972963, "alt_km": 21526.88231394567, "timestamp": "2025-12-21T22:41:41.704677+00:00", "meta": {"OBJECT_NAME": "BEIDOU-3 M28 (C50)", "OBJECT_ID": "2023-207A", "EPOCH": "2025-12-18T08:16:11.764704", "MEAN_MOTION": 1.86229821, "ECCENTRICITY": 0.00026501, "INCLINATION": 55.5892, "RA_OF_ASC_NODE": 68.4116, "ARG_OF_PERICENTER": 272.4264, "MEAN_ANOMALY": 87.5728, "EPHEMERIS_TYPE": 0, "CLASSIFICATION_TYPE": "U", "NORAD_CAT_ID": 58654, "ELEMENT_SET_NO": 999, "REV_AT_EPOCH": 1347, "BSTAR": 0, "MEAN_MOTION_DOT": -6.6e-07, "MEAN_MOTION_DDOT": 0}, "tle": {"line1": "1 58654U 23207A   25352.34458061 -.00000066  00000+0  00000+0 0  9991", "line2": "2 58654  55.5892  68.4116 0002650 272.4264  87.5728  1.86229821 13471"}}, "geometry": {"type": "Point", "coordinates": [-48.19160354972963, -52.59434138177068]}}, {"type": "Feature", "properties": {"norad_id": 58655, "name": "BEIDOU-3 M26 (C48)", "group": "gnss", "lat": 24.36656337611565, "lon": 86.35068468430786, "alt_km": 21532.594580622223, "timestamp": "2025-12-21T22:41:41.704688+00:00", "meta": {"OBJECT_NAME": "BEIDOU-3 M26 (C48)", "OBJECT_ID": "2023-207B", "EPOCH": "2025-12-21T08:44:02.320800", "MEAN_MOTION": 1.8623129, "ECCENTRICITY": 0.00041111, "INCLINATION": 55.5938, "RA_OF_ASC_NODE": 68.2956, "ARG_OF_PERICENTER": 259.2953, "MEAN_ANOMALY": 100.7044, "EPHEMERIS_TYPE": 0, "CLASSIFICATION_TYPE": "U", "NORAD_CAT_ID": 58655, "ELEMENT_SET_NO": 999, "REV_AT_EPOCH": 1351, "BSTAR": 0, "MEAN_MOTION_DOT": -3.7e-07, "MEAN_MOTION_DDOT": 0}, "tle": {"line1": "1 58655U 23207B   25355.36391575 -.00000037  00000+0  00000+0 0  9991", "line2": "2 58655  55.5938  68.2956 0004111 259.2953 100.7044  1.86231290 13512"}}, "geometry": {"type": "Point", "coordinates": [86.35068468430786, 24.36656337611565]}}, {"type": "Feature", "properties": {"norad_id": 59598, "name": "GSAT0225 (GALILEO 29)", "group": "gnss", "lat": 9.758354324820568, "lon": -80.87432003562195, "alt_km": 23214.835418010847, "timestamp": "2025-12-21T22:41:41.704699+00:00", "meta": {"OBJECT_NAME": "GSAT0225 (GALILEO 29)", "OBJECT_ID": "2024-079A", "EPOCH": "2025-12-19T07:40:30.040032", "MEAN_MOTION": 1.7047502, "ECCENTRICITY": 0.0002191, "INCLINATION": 55.0052, "RA_OF_ASC_NODE": 106.1117, "ARG_OF_PERICENTER": 185.2617, "MEAN_ANOMALY": 171.1938, "EPHEMERIS_TYPE": 0, "CLASSIFICATION_TYPE": "U", "NORAD_CAT_ID": 59598, "ELEMENT_SET_NO": 999, "REV_AT_EPOCH": 1024, "BSTAR": 0, "MEAN_MOTION_DOT": -6e-08, "MEAN_MOTION_DDOT": 0}, "tle": {"line1": "1 59598U 24079A   25353.31979213 -.00000006  00000+0  00000+0 0  9996", "line2": "2 59598  55.0052 106.1117 0002191 185.2617 171.1938  1.70475020 10248"}}, "geometry": {"type": "Point", "coordinates": [-80.87432003562195, 9.758354324820568]}}, {"type": "Feature", "properties": {"norad_id": 59600, "name": "GSAT0227 (GALILEO 30)", "group": "gnss", "lat": 42.45111281041611, "lon": 145.8218124476929, "alt_km": 23212.94294106035, "timestamp": "2025-12-21T22:41:41.704714+00:00", "meta": {"OBJECT_NAME": "GSAT0227 (GALILEO 30)", "OBJECT_ID": "2024-079C", "EPOCH": "2025-12-21T06:26:54.419424", "MEAN_MOTION": 1.70474886, "ECCENTRICITY": 0.00028696, "INCLINATION": 55.0016, "RA_OF_ASC_NODE": 106.0558, "ARG_OF_PERICENTER": 117.1813, "MEAN_ANOMALY": 242.8188, "EPHEMERIS_TYPE": 0, "CLASSIFICATION_TYPE": "U", "NORAD_CAT_ID": 59600, "ELEMENT_SET_NO": 999, "REV_AT_EPOCH": 1033, "BSTAR": 0, "MEAN_MOTION_DOT": 1e-08, "MEAN_MOTION_DDOT": 0}, "tle": {"line1": "1 59600U 24079C   25355.26868541  .00000001  00000+0  00000+0 0  9991", "line2": "2 59600  55.0016 106.0558 0002869 117.1813 242.8188  1.70474886 10336"}}, "geometry": {"type": "Point", "coordinates": [145.8218124476929, 42.45111281041611]}}]}